[
    {
        "Altitude(m)": 558271.160741379,
        "Argument of Periapsis(deg)": 0.026491964442854003,
        "Eccentricity": 0.0,
        "Inclination(deg)": 53.0,
        "Latitude(deg)": 46.030744237355876,
        "Longitude(deg)": 117.79255864642784,
        "Mean Anomaly(deg)": 64.00277147031034,
        "RAAN(deg)": 169.96057347411207,
        "Satellite Name": "Starlink Shell 1 749",
        "Satellite Number": 749,
        "Semi-Major Axis(m)": 6931778.249405717,
        "Time(s)": 760
    },
    {
        "Altitude(m)": 558342.2804393176,
        "Argument of Periapsis(deg)": 0.02684054292236524,
        "Eccentricity": 0.0,
        "Inclination(deg)": 53.0,
        "Latitude(deg)": 46.34375907595696,
        "Longitude(deg)": 118.53425487444633,
        "Mean Anomaly(deg)": 64.62960267386705,
        "RAAN(deg)": 169.9600547040346,
        "Satellite Name": "Starlink Shell 1 749",
        "Satellite Number": 749,
        "Semi-Major Axis(m)": 6931778.249405717,
        "Time(s)": 770
    },
    {
        "Altitude(m)": 558412.2789373343,
        "Argument of Periapsis(deg)": 0.027189121401876473,
        "Eccentricity": 0.0,
        "Inclination(deg)": 53.0,
        "Latitude(deg)": 46.6513359890456,
        "Longitude(deg)": 119.28485271777805,
        "Mean Anomaly(deg)": 65.25643387742377,
        "RAAN(deg)": 169.95953593395714,
        "Satellite Name": "Starlink Shell 1 749",
        "Satellite Number": 749,
        "Semi-Major Axis(m)": 6931778.249405717,
        "Time(s)": 780
    },
    {
        "Altitude(m)": 558481.1128975182,
        "Argument of Periapsis(deg)": 0.02753769988138771,
        "Eccentricity": 0.0,
        "Inclination(deg)": 53.0,
        "Latitude(deg)": 46.95335543226421,
        "Longitude(deg)": 120.04438981043982,
        "Mean Anomaly(deg)": 65.88326508098051,
        "RAAN(deg)": 169.95901716387965,
        "Satellite Name": "Starlink Shell 1 749",
        "Satellite Number": 749,
        "Semi-Major Axis(m)": 6931778.249405717,
        "Time(s)": 790
    },
    {
        "Altitude(m)": 558548.7397783189,
        "Argument of Periapsis(deg)": 0.02788627836089895,
        "Eccentricity": 0.0,
        "Inclination(deg)": 53.0,
        "Latitude(deg)": 47.24969673382483,
        "Longitude(deg)": 120.81289446754452,
        "Mean Anomaly(deg)": 66.5100962845372,
        "RAAN(deg)": 169.9584983938022,
        "Satellite Name": "Starlink Shell 1 749",
        "Satellite Number": 749,
        "Semi-Major Axis(m)": 6931778.249405717,
        "Time(s)": 800
    },
    {
        "Altitude(m)": 558615.1178556621,
        "Argument of Periapsis(deg)": 0.02823485684041019,
        "Eccentricity": 0.0,
        "Inclination(deg)": 53.0,
        "Latitude(deg)": 47.540238211126386,
        "Longitude(deg)": 121.59038563759792,
        "Mean Anomaly(deg)": 67.13692748809392,
        "RAAN(deg)": 169.95797962372473,
        "Satellite Name": "Starlink Shell 1 749",
        "Satellite Number": 749,
        "Semi-Major Axis(m)": 6931778.249405717,
        "Time(s)": 810
    },
    {
        "Altitude(m)": 558680.2062436326,
        "Argument of Periapsis(deg)": 0.028583435319921423,
        "Eccentricity": 0.0,
        "Inclination(deg)": 53.0,
        "Latitude(deg)": 47.82485729792965,
        "Longitude(deg)": 122.37687284985476,
        "Mean Anomaly(deg)": 67.76375869165061,
        "RAAN(deg)": 169.95746085364723,
        "Satellite Name": "Starlink Shell 1 749",
        "Satellite Number": 749,
        "Semi-Major Axis(m)": 6931778.249405717,
        "Time(s)": 820
    },
    {
        "Altitude(m)": 558743.9649147029,
        "Argument of Periapsis(deg)": 0.028932013799432665,
        "Eccentricity": 0.0,
        "Inclination(deg)": 53.0,
        "Latitude(deg)": 48.10343068234414,
        "Longitude(deg)": 123.1723546466241,
        "Mean Anomaly(deg)": 68.39058989520737,
        "RAAN(deg)": 169.95694208356977,
        "Satellite Name": "Starlink Shell 1 749",
        "Satellite Number": 749,
        "Semi-Major Axis(m)": 6931778.249405717,
        "Time(s)": 830
    },
    {
        "Altitude(m)": 558806.3547195619,
        "Argument of Periapsis(deg)": 0.029280592278943897,
        "Eccentricity": 0.0,
        "Inclination(deg)": 53.0,
        "Latitude(deg)": 48.37583445582813,
        "Longitude(deg)": 123.97681852933297,
        "Mean Anomaly(deg)": 69.01742109876409,
        "RAAN(deg)": 169.9564233134923,
        "Satellite Name": "Starlink Shell 1 749",
        "Satellite Number": 749,
        "Semi-Major Axis(m)": 6931778.249405717,
        "Time(s)": 840
    },
    {
        "Altitude(m)": 558867.3374064631,
        "Argument of Periapsis(deg)": 0.029629170758455132,
        "Eccentricity": 0.0,
        "Inclination(deg)": 53.0,
        "Latitude(deg)": 48.64194427335086,
        "Longitude(deg)": 124.7902409088337,
        "Mean Anomaly(deg)": 69.64425230232074,
        "RAAN(deg)": 169.95590454341482,
        "Satellite Name": "Starlink Shell 1 749",
        "Satellite Number": 749,
        "Semi-Major Axis(m)": 6931778.249405717,
        "Time(s)": 850
    },
    {
        "Altitude(m)": 558926.8756401058,
        "Argument of Periapsis(deg)": 0.02997774923796637,
        "Eccentricity": 0.0,
        "Inclination(deg)": 53.0,
        "Latitude(deg)": 48.90163552480209,
        "Longitude(deg)": 125.61258538262996,
        "Mean Anomaly(deg)": 70.27108350587751,
        "RAAN(deg)": 169.95538577333735,
        "Satellite Name": "Starlink Shell 1 749",
        "Satellite Number": 749,
        "Semi-Major Axis(m)": 6931778.249405717,
        "Time(s)": 860
    },
    {
        "Altitude(m)": 558984.9330200757,
        "Argument of Periapsis(deg)": 0.030326327717477602,
        "Eccentricity": 0.0,
        "Inclination(deg)": 53.0,
        "Latitude(deg)": 49.154783517657656,
        "Longitude(deg)": 126.44380354539271,
        "Mean Anomaly(deg)": 70.89791470943419,
        "RAAN(deg)": 169.9548670032599,
        "Satellite Name": "Starlink Shell 1 749",
        "Satellite Number": 749,
        "Semi-Major Axis(m)": 6931778.249405717,
        "Time(s)": 870
    },
    {
        "Altitude(m)": 559041.474098792,
        "Argument of Periapsis(deg)": 0.030674906196988847,
        "Eccentricity": 0.0,
        "Inclination(deg)": 53.0,
        "Latitude(deg)": 49.401263670841146,
        "Longitude(deg)": 127.2838332940571,
        "Mean Anomaly(deg)": 71.52474591299092,
        "RAAN(deg)": 169.9543482331824,
        "Satellite Name": "Starlink Shell 1 749",
        "Satellite Number": 749,
        "Semi-Major Axis(m)": 6931778.249405717,
        "Time(s)": 880
    },
    {
        "Altitude(m)": 559096.4643989604,
        "Argument of Periapsis(deg)": 0.031023484676500086,
        "Eccentricity": 0.0,
        "Inclination(deg)": 53.0,
        "Latitude(deg)": 49.64095171962478,
        "Longitude(deg)": 128.13259883439488,
        "Mean Anomaly(deg)": 72.15157711654766,
        "RAAN(deg)": 169.95382946310494,
        "Satellite Name": "Starlink Shell 1 749",
        "Satellite Number": 749,
        "Semi-Major Axis(m)": 6931778.249405717,
        "Time(s)": 890
    },
    {
        "Altitude(m)": 559149.8704305739,
        "Argument of Periapsis(deg)": 0.03137206315601132,
        "Eccentricity": 0.0,
        "Inclination(deg)": 53.0,
        "Latitude(deg)": 49.87372393132835,
        "Longitude(deg)": 128.99001071278315,
        "Mean Anomaly(deg)": 72.77840832010432,
        "RAAN(deg)": 169.95331069302748,
        "Satellite Name": "Starlink Shell 1 749",
        "Satellite Number": 749,
        "Semi-Major Axis(m)": 6931778.249405717,
        "Time(s)": 900
    },
    {
        "Altitude(m)": 559201.6597073583,
        "Argument of Periapsis(deg)": 0.03172064163552255,
        "Eccentricity": 0.0,
        "Inclination(deg)": 53.0,
        "Latitude(deg)": 50.099457331473,
        "Longitude(deg)": 129.85596436518023,
        "Mean Anomaly(deg)": 73.40523952366107,
        "RAAN(deg)": 169.95279192294998,
        "Satellite Name": "Starlink Shell 1 749",
        "Satellite Number": 749,
        "Semi-Major Axis(m)": 6931778.249405717,
        "Time(s)": 910
    },
    {
        "Altitude(m)": 559251.8007627716,
        "Argument of Periapsis(deg)": 0.0320692201150338,
        "Eccentricity": 0.0,
        "Inclination(deg)": 53.0,
        "Latitude(deg)": 50.318029939938185,
        "Longitude(deg)": 130.73034021411036,
        "Mean Anomaly(deg)": 74.03207072721774,
        "RAAN(deg)": 169.95227315287252,
        "Satellite Name": "Starlink Shell 1 749",
        "Satellite Number": 749,
        "Semi-Major Axis(m)": 6931778.249405717,
        "Time(s)": 920
    },
    {
        "Altitude(m)": 559300.2631654454,
        "Argument of Periapsis(deg)": 0.032417798594545036,
        "Eccentricity": 0.0,
        "Inclination(deg)": 53.0,
        "Latitude(deg)": 50.52932101656484,
        "Longitude(deg)": 131.61300380594275,
        "Mean Anomaly(deg)": 74.6589019307745,
        "RAAN(deg)": 169.95175438279506,
        "Satellite Name": "Starlink Shell 1 749",
        "Satellite Number": 749,
        "Semi-Major Axis(m)": 6931778.249405717,
        "Time(s)": 930
    },
    {
        "Altitude(m)": 559347.017534134,
        "Argument of Periapsis(deg)": 0.03276637707405627,
        "Eccentricity": 0.0,
        "Inclination(deg)": 53.0,
        "Latitude(deg)": 50.73321131553107,
        "Longitude(deg)": 132.5038044808123,
        "Mean Anomaly(deg)": 75.28573313433121,
        "RAAN(deg)": 169.95123561271757,
        "Satellite Name": "Starlink Shell 1 749",
        "Satellite Number": 749,
        "Semi-Major Axis(m)": 6931778.249405717,
        "Time(s)": 940
    }
]